ORBCOMM FM37            
1 33064U 08031E   25097.57083125  .00003297  00000+0  46491-3 0  9999
2 33064  48.4399 319.2785 0005142  71.3708 322.5849 14.79431128903597
ORBCOMM FM40            
1 33065U 08031F   25097.59180588  .00004314  00000+0  56994-3 0  9993
2 33065  48.4410 304.3730 0006294  85.7294 325.9059 14.81579212903696
VESSELSAT 1             
1 37840U 11058C   25097.46892796  .00000471  00000+0  11238-3 0  9990
2 37840  19.9606 161.7982 0013741 128.1707 231.9936 14.11334799696300
ORBCOMM FM109           
1 40086U 14040A   25097.05948982  .00002013  00000+0  47015-3 0  9990
2 40086  47.0045 352.1860 0001830 358.1899   1.8980 14.58024617570680
ORBCOMM FM107           
1 40087U 14040B   25097.02272377  .00001781  00000+0  41975-3 0  9996
2 40087  47.0061 353.3484 0001696 306.8196  53.2534 14.58084643570753
ORBCOMM FM106           
1 40088U 14040C   25097.51466968  .00002288  00000+0  41531-3 0  9993
2 40088  47.0586 178.7735 0015906  99.3884 260.8806 14.69222591573086
ORBCOMM FM111           
1 40089U 14040D   25097.55987094  .00005054  00000+0  59386-3 0  9997
2 40089  47.0023  38.1943 0030494 215.3072 144.5805 14.85807322579724
ORBCOMM FM104           
1 40090U 14040E   25097.20770790  .00001643  00000+0  40286-3 0  9993
2 40090  47.0069  25.2320 0016841 242.5781 117.3391 14.56507768570279
